[Satellite]
VERSION=1.1
NAME=FENGYUN 2G
NICKNAME=FENGYUN 2G
TLE1=1 40367U 14090A   17186.27887028 -.00000334  00000-0  00000-0 0  9990
TLE2=2 40367   0.4009 253.7523 0003995 354.9671 239.7713  1.00273306  9264
